ONEWEB-0338             
1 49204U 21083U   24007.76288090 -.00000047  00000+0 -14824-3 0  9990
2 49204  87.9195  91.9098 0002261 111.5871 248.5503 13.20770827119141
ONEWEB-0339             
1 49205U 21083V   24007.92451526 -.00000430  00000+0 -12118-2 0  9994
2 49205  87.9011 137.6236 0001669  99.6108 260.5210 13.13469355113899
ONEWEB-0340             
1 49206U 21083W   24008.41995059  .00000088  00000+0  18935-3 0  9995
2 49206  87.9233 152.6858 0001450  94.0078 266.1220 13.18684849113868
ONEWEB-0341             
1 49207U 21083X   24007.89672793  .00000894  00000+0  22344-2 0  9997
2 49207  87.9236 152.8041 0001851  76.1449 283.9888 13.18682557112529
ONEWEB-0342             
1 49208U 21083Y   24008.29948778  .00000003  00000+0 -23594-4 0  9995
2 49208  87.9185  91.8263 0002007 109.7743 250.3607 13.20770081120489
ONEWEB-0343             
1 49209U 21083Z   24008.42313284  .00000029  00000+0  40398-4 0  9997
2 49209  87.9223 152.7173 0002167  87.7913 272.3467 13.18679908113934
ONEWEB-0344             
1 49210U 21083AA  24007.89119306 -.00000022  00000+0 -96387-4 0  9992
2 49210  87.9017 137.6428 0001360 104.8102 255.3178 13.13470557113896
ONEWEB-0345             
1 49211U 21083AB  24008.36570995  .00000097  00000+0  23097-3 0  9998
2 49211  87.9015 137.5289 0001603  80.1154 280.0156 13.13468884115266
